ONEWEB-0392             
1 50472U 21132D   26068.83203174  .00000102  00000+0  22841-3 0  9999
2 50472  87.9162  25.5683 0001764  69.1039 291.0281 13.17649649205031
ONEWEB-0393             
1 50473U 21132E   26068.88109316 -.00000106  00000+0 -30494-3 0  9997
2 50473  87.9161  25.5814 0001823  73.9897 286.1436 13.17649696205037
ONEWEB-0394             
1 50474U 21132F   26068.77551796  .00000081  00000+0  17179-3 0  9994
2 50474  87.9250 355.1843 0001646  74.3964 285.7349 13.18686524208497
ONEWEB-0395             
1 50475U 21132G   26068.82866485  .00001104  00000+0  30787-2 0  9991
2 50475  87.8860  40.8271 0001945  77.5874 282.5472 13.11414363202695
ONEWEB-0396             
1 50476U 21132H   26068.76892102  .00000053  00000+0  10296-3 0  9996
2 50476  87.9253 355.1971 0001685  76.0830 284.0490 13.18686134208539
ONEWEB-0397             
1 50477U 21132J   26068.70788965  .00000124  00000+0  28106-3 0  9990
2 50477  87.9253 355.2092 0001569  79.6677 280.4632 13.18686688208503
ONEWEB-0398             
1 50478U 21132K   26068.87272968 -.00000440  00000+0 -12762-2 0  9993
2 50478  87.8869  40.7985 0002200  79.1725 280.9651 13.11417186202592
ONEWEB-0399             
1 50479U 21132L   26068.85916536 -.00000320  00000+0 -93877-3 0  9992
2 50479  87.8866  40.8108 0001437  71.3489 288.7795 13.11415353202588
ONEWEB-0400             
1 50480U 21132M   26068.83819983  .00000047  00000+0  87639-4 0  9994
2 50480  87.9252 355.1736 0001970  77.7422 282.3931 13.18686798208519
ONEWEB-0401             
1 50481U 21132N   26068.73096862 -.00000121  00000+0 -34065-3 0  9996
2 50481  87.9255 355.1905 0001624  82.3998 277.7318 13.18686209208500
ONEWEB-0402             
1 50482U 21132P   26068.77054507  .00000010  00000+0 -66680-5 0  9997
2 50482  87.9250 355.1744 0001413  92.6956 267.4338 13.18684019208539
ONEWEB-0403             
1 50483U 21132Q   26068.71943546  .00000063  00000+0  12706-3 0  9997
2 50483  87.9251 355.2075 0001777  75.8579 284.2751 13.18687095208483
ONEWEB-0404             
1 50484U 21132R   26068.84051641  .00000449  00000+0  12310-2 0  9996
2 50484  87.8859  40.8214 0001760  72.9576 287.1744 13.11416795202675
ONEWEB-0405             
1 50485U 21132S   26068.73426804  .00000021  00000+0  19751-4 0  9996
2 50485  87.9252 355.1887 0002327  76.0038 284.1353 13.18685126208885
ONEWEB-0406             
1 50486U 21132T   26068.72437293 -.00000096  00000+0 -27701-3 0  9997
2 50486  87.9246 355.2158 0001685  62.3288 297.8015 13.18686180208519
ONEWEB-0407             
1 50487U 21132U   26068.71778183 -.00000049  00000+0 -15663-3 0  9995
2 50487  87.9253 355.2008 0001791  83.6351 276.4985 13.18686193208453
ONEWEB-0409             
1 50488U 21132V   26068.83881811  .00000464  00000+0  12743-2 0  9996
2 50488  87.8869  40.8029 0001861  73.4708 286.6625 13.11418481202563
