[{"OBJECT_NAME":"ONEWEB-0392","OBJECT_ID":"2021-132D","EPOCH":"2026-03-09T19:58:07.542336","MEAN_MOTION":13.17649649,"ECCENTRICITY":0.0001764,"INCLINATION":87.9162,"RA_OF_ASC_NODE":25.5683,"ARG_OF_PERICENTER":69.1039,"MEAN_ANOMALY":291.0281,"EPHEMERIS_TYPE":0,"CLASSIFICATION_TYPE":"U","NORAD_CAT_ID":50472,"ELEMENT_SET_NO":999,"REV_AT_EPOCH":20503,"BSTAR":0.00022841,"MEAN_MOTION_DOT":1.02e-6,"MEAN_MOTION_DDOT":0},{"OBJECT_NAME":"ONEWEB-0393","OBJECT_ID":"2021-132E","EPOCH":"2026-03-09T21:08:46.449024","MEAN_MOTION":13.17649696,"ECCENTRICITY":0.0001823,"INCLINATION":87.9161,"RA_OF_ASC_NODE":25.5814,"ARG_OF_PERICENTER":73.9897,"MEAN_ANOMALY":286.1436,"EPHEMERIS_TYPE":0,"CLASSIFICATION_TYPE":"U","NORAD_CAT_ID":50473,"ELEMENT_SET_NO":999,"REV_AT_EPOCH":20503,"BSTAR":-0.00030494,"MEAN_MOTION_DOT":-1.06e-6,"MEAN_MOTION_DDOT":0},{"OBJECT_NAME":"ONEWEB-0394","OBJECT_ID":"2021-132F","EPOCH":"2026-03-09T18:36:44.751744","MEAN_MOTION":13.18686524,"ECCENTRICITY":0.0001646,"INCLINATION":87.925,"RA_OF_ASC_NODE":355.1843,"ARG_OF_PERICENTER":74.3964,"MEAN_ANOMALY":285.7349,"EPHEMERIS_TYPE":0,"CLASSIFICATION_TYPE":"U","NORAD_CAT_ID":50474,"ELEMENT_SET_NO":999,"REV_AT_EPOCH":20849,"BSTAR":0.00017179,"MEAN_MOTION_DOT":8.1e-7,"MEAN_MOTION_DDOT":0},{"OBJECT_NAME":"ONEWEB-0395","OBJECT_ID":"2021-132G","EPOCH":"2026-03-09T19:53:16.643040","MEAN_MOTION":13.11414363,"ECCENTRICITY":0.0001945,"INCLINATION":87.886,"RA_OF_ASC_NODE":40.8271,"ARG_OF_PERICENTER":77.5874,"MEAN_ANOMALY":282.5472,"EPHEMERIS_TYPE":0,"CLASSIFICATION_TYPE":"U","NORAD_CAT_ID":50475,"ELEMENT_SET_NO":999,"REV_AT_EPOCH":20269,"BSTAR":0.0030787,"MEAN_MOTION_DOT":1.104e-5,"MEAN_MOTION_DDOT":0},{"OBJECT_NAME":"ONEWEB-0396","OBJECT_ID":"2021-132H","EPOCH":"2026-03-09T18:27:14.776128","MEAN_MOTION":13.18686134,"ECCENTRICITY":0.0001685,"INCLINATION":87.9253,"RA_OF_ASC_NODE":355.1971,"ARG_OF_PERICENTER":76.083,"MEAN_ANOMALY":284.049,"EPHEMERIS_TYPE":0,"CLASSIFICATION_TYPE":"U","NORAD_CAT_ID":50476,"ELEMENT_SET_NO":999,"REV_AT_EPOCH":20853,"BSTAR":0.00010296,"MEAN_MOTION_DOT":5.3e-7,"MEAN_MOTION_DDOT":0},{"OBJECT_NAME":"ONEWEB-0397","OBJECT_ID":"2021-132J","EPOCH":"2026-03-09T16:59:21.665760","MEAN_MOTION":13.18686688,"ECCENTRICITY":0.0001569,"INCLINATION":87.9253,"RA_OF_ASC_NODE":355.2092,"ARG_OF_PERICENTER":79.6677,"MEAN_ANOMALY":280.4632,"EPHEMERIS_TYPE":0,"CLASSIFICATION_TYPE":"U","NORAD_CAT_ID":50477,"ELEMENT_SET_NO":999,"REV_AT_EPOCH":20850,"BSTAR":0.00028106,"MEAN_MOTION_DOT":1.24e-6,"MEAN_MOTION_DDOT":0},{"OBJECT_NAME":"ONEWEB-0398","OBJECT_ID":"2021-132K","EPOCH":"2026-03-09T20:56:43.844352","MEAN_MOTION":13.11417186,"ECCENTRICITY":0.00022,"INCLINATION":87.8869,"RA_OF_ASC_NODE":40.7985,"ARG_OF_PERICENTER":79.1725,"MEAN_ANOMALY":280.9651,"EPHEMERIS_TYPE":0,"CLASSIFICATION_TYPE":"U","NORAD_CAT_ID":50478,"ELEMENT_SET_NO":999,"REV_AT_EPOCH":20259,"BSTAR":-0.0012762,"MEAN_MOTION_DOT":-4.4e-6,"MEAN_MOTION_DDOT":0},{"OBJECT_NAME":"ONEWEB-0399","OBJECT_ID":"2021-132L","EPOCH":"2026-03-09T20:37:11.887104","MEAN_MOTION":13.11415353,"ECCENTRICITY":0.0001437,"INCLINATION":87.8866,"RA_OF_ASC_NODE":40.8108,"ARG_OF_PERICENTER":71.3489,"MEAN_ANOMALY":288.7795,"EPHEMERIS_TYPE":0,"CLASSIFICATION_TYPE":"U","NORAD_CAT_ID":50479,"ELEMENT_SET_NO":999,"REV_AT_EPOCH":20258,"BSTAR":-0.00093877,"MEAN_MOTION_DOT":-3.2e-6,"MEAN_MOTION_DDOT":0},{"OBJECT_NAME":"ONEWEB-0400","OBJECT_ID":"2021-132M","EPOCH":"2026-03-09T20:07:00.465312","MEAN_MOTION":13.18686798,"ECCENTRICITY":0.000197,"INCLINATION":87.9252,"RA_OF_ASC_NODE":355.1736,"ARG_OF_PERICENTER":77.7422,"MEAN_ANOMALY":282.3931,"EPHEMERIS_TYPE":0,"CLASSIFICATION_TYPE":"U","NORAD_CAT_ID":50480,"ELEMENT_SET_NO":999,"REV_AT_EPOCH":20851,"BSTAR":8.7639e-5,"MEAN_MOTION_DOT":4.7e-7,"MEAN_MOTION_DDOT":0},{"OBJECT_NAME":"ONEWEB-0401","OBJECT_ID":"2021-132N","EPOCH":"2026-03-09T17:32:35.688768","MEAN_MOTION":13.18686209,"ECCENTRICITY":0.0001624,"INCLINATION":87.9255,"RA_OF_ASC_NODE":355.1905,"ARG_OF_PERICENTER":82.3998,"MEAN_ANOMALY":277.7318,"EPHEMERIS_TYPE":0,"CLASSIFICATION_TYPE":"U","NORAD_CAT_ID":50481,"ELEMENT_SET_NO":999,"REV_AT_EPOCH":20850,"BSTAR":-0.00034065,"MEAN_MOTION_DOT":-1.21e-6,"MEAN_MOTION_DDOT":0},{"OBJECT_NAME":"ONEWEB-0402","OBJECT_ID":"2021-132P","EPOCH":"2026-03-09T18:29:35.094048","MEAN_MOTION":13.18684019,"ECCENTRICITY":0.0001413,"INCLINATION":87.925,"RA_OF_ASC_NODE":355.1744,"ARG_OF_PERICENTER":92.6956,"MEAN_ANOMALY":267.4338,"EPHEMERIS_TYPE":0,"CLASSIFICATION_TYPE":"U","NORAD_CAT_ID":50482,"ELEMENT_SET_NO":999,"REV_AT_EPOCH":20853,"BSTAR":-6.668e-6,"MEAN_MOTION_DOT":1.0e-7,"MEAN_MOTION_DDOT":0},{"OBJECT_NAME":"ONEWEB-0403","OBJECT_ID":"2021-132Q","EPOCH":"2026-03-09T17:15:59.223744","MEAN_MOTION":13.18687095,"ECCENTRICITY":0.0001777,"INCLINATION":87.9251,"RA_OF_ASC_NODE":355.2075,"ARG_OF_PERICENTER":75.8579,"MEAN_ANOMALY":284.2751,"EPHEMERIS_TYPE":0,"CLASSIFICATION_TYPE":"U","NORAD_CAT_ID":50483,"ELEMENT_SET_NO":999,"REV_AT_EPOCH":20848,"BSTAR":0.00012706,"MEAN_MOTION_DOT":6.3e-7,"MEAN_MOTION_DDOT":0},{"OBJECT_NAME":"ONEWEB-0404","OBJECT_ID":"2021-132R","EPOCH":"2026-03-09T20:10:20.617824","MEAN_MOTION":13.11416795,"ECCENTRICITY":0.000176,"INCLINATION":87.8859,"RA_OF_ASC_NODE":40.8214,"ARG_OF_PERICENTER":72.9576,"MEAN_ANOMALY":287.1744,"EPHEMERIS_TYPE":0,"CLASSIFICATION_TYPE":"U","NORAD_CAT_ID":50484,"ELEMENT_SET_NO":999,"REV_AT_EPOCH":20267,"BSTAR":0.001231,"MEAN_MOTION_DOT":4.49e-6,"MEAN_MOTION_DDOT":0},{"OBJECT_NAME":"ONEWEB-0405","OBJECT_ID":"2021-132S","EPOCH":"2026-03-09T17:37:20.758656","MEAN_MOTION":13.18685126,"ECCENTRICITY":0.0002327,"INCLINATION":87.9252,"RA_OF_ASC_NODE":355.1887,"ARG_OF_PERICENTER":76.0038,"MEAN_ANOMALY":284.1353,"EPHEMERIS_TYPE":0,"CLASSIFICATION_TYPE":"U","NORAD_CAT_ID":50485,"ELEMENT_SET_NO":999,"REV_AT_EPOCH":20888,"BSTAR":1.9751e-5,"MEAN_MOTION_DOT":2.1e-7,"MEAN_MOTION_DDOT":0},{"OBJECT_NAME":"ONEWEB-0406","OBJECT_ID":"2021-132T","EPOCH":"2026-03-09T17:23:05.821152","MEAN_MOTION":13.1868618,"ECCENTRICITY":0.0001685,"INCLINATION":87.9246,"RA_OF_ASC_NODE":355.2158,"ARG_OF_PERICENTER":62.3288,"MEAN_ANOMALY":297.8015,"EPHEMERIS_TYPE":0,"CLASSIFICATION_TYPE":"U","NORAD_CAT_ID":50486,"ELEMENT_SET_NO":999,"REV_AT_EPOCH":20851,"BSTAR":-0.00027701,"MEAN_MOTION_DOT":-9.6e-7,"MEAN_MOTION_DDOT":0},{"OBJECT_NAME":"ONEWEB-0407","OBJECT_ID":"2021-132U","EPOCH":"2026-03-09T17:13:36.350112","MEAN_MOTION":13.18686193,"ECCENTRICITY":0.0001791,"INCLINATION":87.9253,"RA_OF_ASC_NODE":355.2008,"ARG_OF_PERICENTER":83.6351,"MEAN_ANOMALY":276.4985,"EPHEMERIS_TYPE":0,"CLASSIFICATION_TYPE":"U","NORAD_CAT_ID":50487,"ELEMENT_SET_NO":999,"REV_AT_EPOCH":20845,"BSTAR":-0.00015663,"MEAN_MOTION_DOT":-4.9e-7,"MEAN_MOTION_DDOT":0},{"OBJECT_NAME":"ONEWEB-0409","OBJECT_ID":"2021-132V","EPOCH":"2026-03-09T20:07:53.884704","MEAN_MOTION":13.11418481,"ECCENTRICITY":0.0001861,"INCLINATION":87.8869,"RA_OF_ASC_NODE":40.8029,"ARG_OF_PERICENTER":73.4708,"MEAN_ANOMALY":286.6625,"EPHEMERIS_TYPE":0,"CLASSIFICATION_TYPE":"U","NORAD_CAT_ID":50488,"ELEMENT_SET_NO":999,"REV_AT_EPOCH":20256,"BSTAR":0.0012743,"MEAN_MOTION_DOT":4.64e-6,"MEAN_MOTION_DDOT":0}]
